OBJECT_NAME,OBJECT_ID,EPOCH,MEAN_MOTION,ECCENTRICITY,INCLINATION,RA_OF_ASC_NODE,ARG_OF_PERICENTER,MEAN_ANOMALY,EPHEMERIS_TYPE,CLASSIFICATION_TYPE,NORAD_CAT_ID,ELEMENT_SET_NO,REV_AT_EPOCH,BSTAR,MEAN_MOTION_DOT,MEAN_MOTION_DDOT
STARLINK-35640,2025-265W,2026-06-08T14:06:21.714048,15.27595893,.0001918,43.0002,124.7151,273.4416,86.6216,0,U,66536,999,3101,.99124E-3,.27129E-3,0
STARLINK-35582,2025-265X,2026-06-08T04:30:16.638048,15.27585306,.00003036,43.0019,126.8688,257.1160,102.9658,0,U,66537,999,3095,.80463805E-4,.1953E-4,0
STARLINK-35577,2025-265Y,2026-06-08T04:24:46.264320,15.27595475,.00014437,43.0036,126.8423,270.5281,89.5405,0,U,66538,999,3095,.80073108E-3,.21848E-3,0
STARLINK-35697,2025-265Z,2026-06-08T04:15:30.333888,15.27584617,.00030679,43.0035,126.7919,274.3630,85.6871,0,U,66539,999,3095,.74810368E-3,.20385E-3,0
STARLINK-35818,2025-265AA,2026-06-08T14:39:40.817376,15.27585673,.0000535,43.0086,124.8894,84.2100,275.8812,0,U,66540,999,3101,.64689E-3,.17584E-3,0
STARLINK-35796,2025-265AB,2026-06-08T04:39:34.664544,15.27593147,.00004713,43.0044,126.9250,224.6647,135.4167,0,U,66541,999,3095,.82071912E-3,.224E-3,0
STARLINK-35833,2025-265AC,2026-06-08T14:43:22.882656,15.27586714,.000061,43.0017,124.9144,113.3563,246.7353,0,U,66542,999,3101,.67691E-3,.18415E-3,0
STARLINK-35315,2025-265AD,2026-06-08T04:52:31.639008,15.27583614,.0000645,42.9976,126.9926,207.3770,152.7048,0,U,66543,999,3095,.53556E-3,.14506E-3,0
STARLINK-35728,2025-265AE,2026-06-08T15:03:31.043232,15.27597391,.00005,43.0027,124.1483,68.7950,291.2955,0,U,66544,999,3102,.71173E-3,.19385E-3,0
STARLINK-35699,2025-268A,2026-06-07T09:24:27.660384,15.27590429,.00037936,43.0100,200.9072,282.5315,77.5113,0,U,66557,999,3167,.55692285E-3,.15101E-3,0
STARLINK-35695,2025-268B,2026-06-08T08:51:15.208992,15.27589975,.0005028,43.0030,195.3351,276.4290,83.5989,0,U,66558,999,3182,.43168E-3,.11642E-3,0
STARLINK-35419,2025-268C,2026-06-07T19:46:33.701088,15.27587709,.0001462,43.0037,198.1215,273.1411,86.9273,0,U,66559,999,3174,.48949E-3,.13235E-3,0
STARLINK-35411,2025-268D,2026-06-08T19:15:11.490048,15.27592492,.0001843,43.0047,192.5639,273.0304,87.0337,0,U,66560,999,3189,.80842E-3,.22059E-3,0
STARLINK-35305,2025-268E,2026-06-08T19:04:05.132640,15.27594019,.0002023,42.9966,192.5039,265.0497,95.0124,0,U,66561,999,3189,.84132E-3,.22972E-3,0
STARLINK-35579,2025-268F,2026-06-08T09:44:42.072000,15.27593811,.0001047,43.0025,194.7477,277.9394,82.1339,0,U,66562,999,3183,.5298E-3,.14351E-3,0
STARLINK-35437,2025-268G,2026-06-08T18:58:31.963008,15.27596313,.00021,42.9925,192.4715,271.6642,88.3969,0,U,66563,999,3189,.81474E-3,.22237E-3,0
STARLINK-35358,2025-268H,2026-06-08T18:52:58.940256,15.27595808,.0002057,42.9995,192.4395,279.6063,80.4556,0,U,66564,999,3189,.72227E-3,.19676E-3,0
STARLINK-35893,2025-268J,2026-06-08T18:47:25.849248,15.27600751,.0001694,42.9950,192.4077,282.3050,77.7611,0,U,66565,999,3189,.90272E-3,.24678E-3,0
STARLINK-35871,2025-268K,2026-06-08T18:43:42.993408,15.27605684,.0002719,42.9925,192.3863,278.6756,81.3788,0,U,66566,999,3189,.97606E-3,.26717E-3,0
STARLINK-35825,2025-268L,2026-06-08T18:38:11.106816,15.27606281,.0001961,42.9960,192.3572,288.5042,71.5597,0,U,66567,999,3189,.59366E-3,.16123E-3,0
STARLINK-35803,2025-268M,2026-06-07T09:33:29.822112,15.27589516,.00002529,42.9972,200.0758,175.5505,184.5349,0,U,66568,999,3168,.82114691E-3,.22409E-3,0
STARLINK-35835,2025-268N,2026-06-07T09:29:47.532192,15.27590670,.00010855,43.0014,200.0564,274.8809,85.1919,0,U,66569,999,3168,.71982766E-3,.19605E-3,0
STARLINK-35834,2025-268P,2026-06-07T09:26:18.433824,15.27585243,.00020678,42.9988,200.9093,274.7267,85.3348,0,U,66570,999,3167,.53776923E-3,.14568E-3,0
STARLINK-35836,2025-268Q,2026-06-08T08:53:06.150048,15.27590482,.0001434,42.9994,195.3384,259.6348,100.4342,0,U,66571,999,3182,.66088E-3,.17974E-3,0
STARLINK-35870,2025-268R,2026-06-08T19:42:57.123072,15.27603683,.0000655,42.9990,192.7073,258.7116,101.3662,0,U,66572,999,3189,.93828E-3,.25666E-3,0
STARLINK-35650,2025-268S,2026-06-08T19:37:22.880352,15.27604603,.0002259,43.0036,192.6774,265.3172,94.7422,0,U,66573,999,3189,.53598E-3,.14527E-3,0
STARLINK-35812,2025-268T,2026-06-08T13:15:13.256928,15.27593346,.0001749,43.0011,194.1316,293.4964,66.5704,0,U,66574,999,3185,.82023E-3,.22387E-3,0
STARLINK-35810,2025-268U,2026-06-08T19:26:17.380032,15.27593226,.0002172,43.0019,192.6208,269.1873,90.8730,0,U,66575,999,3189,.81304E-3,.22188E-3,0
STARLINK-35814,2025-268V,2026-06-08T19:20:43.120032,15.27602098,.0004235,43.0016,192.5919,263.9491,96.0878,0,U,66576,999,3189,.83043E-3,.22679E-3,0
STARLINK-35815,2025-268W,2026-06-08T09:46:32.632032,15.27591647,.0001227,42.9999,194.7532,266.1830,93.8881,0,U,66577,999,3183,.42831E-3,.11547E-3,0
